{
    "links": {
        "self": "http://www.neowsapp.com/rest/v1/neo/3840755?api_key=iIulBulltgU6a56xZRHN4H3l9WmuAYTsLGpBGhQ2"
    },
    "id": "3840755",
    "neo_reference_id": "3840755",
    "name": "(2019 FB3)",
    "designation": "2019 FB3",
    "nasa_jpl_url": "http://ssd.jpl.nasa.gov/sbdb.cgi?sstr=3840755",
    "absolute_magnitude_h": 24.5,
    "estimated_diameter": {
        "kilometers": {
            "estimated_diameter_min": 0.0334622374,
            "estimated_diameter_max": 0.0748238376
        },
        "meters": {
            "estimated_diameter_min": 33.4622374455,
            "estimated_diameter_max": 74.8238376074
        },
        "miles": {
            "estimated_diameter_min": 0.0207924639,
            "estimated_diameter_max": 0.0464933628
        },
        "feet": {
            "estimated_diameter_min": 109.7842471007,
            "estimated_diameter_max": 245.4850393757
        }
    },
    "is_potentially_hazardous_asteroid": false,
    "close_approach_data": [
        {
            "close_approach_date": "2019-04-12",
            "close_approach_date_full": "2019-Apr-12 07:58",
            "epoch_date_close_approach": 1555055880000,
            "relative_velocity": {
                "kilometers_per_second": "14.1732611324",
                "kilometers_per_hour": "51023.7400767548",
                "miles_per_hour": "31704.1678271369"
            },
            "miss_distance": {
                "astronomical": "0.0303869656",
                "lunar": "11.8205296184",
                "kilometers": "4545825.329523272",
                "miles": "2824644.8792422736"
            },
            "orbiting_body": "Earth"
        },
        {
            "close_approach_date": "2103-03-18",
            "close_approach_date_full": "2103-Mar-18 06:09",
            "epoch_date_close_approach": 4203641340000,
            "relative_velocity": {
                "kilometers_per_second": "27.9363167734",
                "kilometers_per_hour": "100570.740384186",
                "miles_per_hour": "62490.7469903849"
            },
            "miss_distance": {
                "astronomical": "0.4987292992",
                "lunar": "194.0056973888",
                "kilometers": "74608840.866912704",
                "miles": "46359783.9829511552"
            },
            "orbiting_body": "Earth"
        },
        {
            "close_approach_date": "2108-04-23",
            "close_approach_date_full": "2108-Apr-23 02:52",
            "epoch_date_close_approach": 4364592720000,
            "relative_velocity": {
                "kilometers_per_second": "11.7248732448",
                "kilometers_per_hour": "42209.5436813495",
                "miles_per_hour": "26227.3689613363"
            },
            "miss_distance": {
                "astronomical": "0.0665589531",
                "lunar": "25.8914327559",
                "kilometers": "9957077.613189897",
                "miles": "6187041.1319266986"
            },
            "orbiting_body": "Earth"
        },
        {
            "close_approach_date": "2108-05-24",
            "close_approach_date_full": "2108-May-24 09:03",
            "epoch_date_close_approach": 4367293380000,
            "relative_velocity": {
                "kilometers_per_second": "7.3870966418",
                "kilometers_per_hour": "26593.5479103471",
                "miles_per_hour": "16524.1964779598"
            },
            "miss_distance": {
                "astronomical": "0.1462656357",
                "lunar": "56.8973322873",
                "kilometers": "21881027.554915959",
                "miles": "13596240.0565958742"
            },
            "orbiting_body": "Venus"
        },
        {
            "close_approach_date": "2197-09-07",
            "close_approach_date_full": "2197-Sep-07 17:43",
            "epoch_date_close_approach": 7185087780000,
            "relative_velocity": {
                "kilometers_per_second": "24.112737338",
                "kilometers_per_hour": "86805.8544169688",
                "miles_per_hour": "53937.7821514771"
            },
            "miss_distance": {
                "astronomical": "0.3833137238",
                "lunar": "149.1090385582",
                "kilometers": "57342916.622248306",
                "miles": "35631236.1466903828"
            },
            "orbiting_body": "Earth"
        }
    ],
    "orbital_data": {
        "orbit_id": "7",
        "orbit_determination_date": "2019-04-20 07:25:56",
        "first_observation_date": "2019-03-31",
        "last_observation_date": "2019-04-12",
        "data_arc_in_days": 12,
        "observations_used": 66,
        "orbit_uncertainty": "7",
        "minimum_orbit_intersection": ".0154947",
        "jupiter_tisserand_invariant": "3.791",
        "epoch_osculation": "2459000.5",
        "eccentricity": ".5434417394142806",
        "semi_major_axis": "1.862926709737054",
        "inclination": "6.677968477728768",
        "ascending_node_longitude": "196.9711730394154",
        "orbital_period": "928.7355742130687",
        "perihelion_distance": ".8505345781962266",
        "perihelion_argument": "63.44708746338365",
        "aphelion_distance": "2.875318841277881",
        "perihelion_time": "2458627.101784443249",
        "mean_anomaly": "144.7380302130982",
        "mean_motion": ".3876237865713643",
        "equinox": "J2000",
        "orbit_class": {
            "orbit_class_type": "APO",
            "orbit_class_description": "Near-Earth asteroid orbits which cross the Earth’s orbit similar to that of 1862 Apollo",
            "orbit_class_range": "a (semi-major axis) > 1.0 AU; q (perihelion) < 1.017 AU"
        }
    },
    "is_sentry_object": false
}